NAYIF-1 (EO-88)         
1 42017U 17008BX  23041.14018691  .00086896  00000+0  16585-2 0  9993
2 42017  97.2353 110.0348 0003676 110.9564 249.2080 15.47822185333647
ZHUHAI-1 02 (CAS-4B)    
1 42759U 17034B   23041.05216620  .00010266  00000+0  55898-3 0  9996
2 42759  43.0178 101.0257 0010952 350.8853  82.3932 15.14469863312344
ZHUHAI-1 01 (CAS-4A)    
1 42761U 17034D   23041.16461524  .00009532  00000+0  51799-3 0  9996
2 42761  43.0167  98.9972 0011386 356.7113 215.6502 15.14601039312368
MAX VALIER SAT          
1 42778U 17036P   23041.04918185  .00026341  00000+0  83582-3 0  9995
2 42778  97.1763  79.3058 0009129 189.1949 170.9128 15.32614391313210
RADFXSAT (FOX-1B)       
1 43017U 17073E   23040.97655625  .00010887  00000+0  78203-3 0  9993
2 43017  97.6488 290.3918 0242082 128.3590 233.9650 14.83775935282302
FOX-1D (AO-92)          
1 43137U 18004AC  23041.15813576  .00041359  00000+0  11594-2 0  9990
2 43137  97.3430 119.7825 0006181 233.4633 126.6042 15.36461963282747
DIWATA-2B               
1 43678U 18084H   23041.06408098  .00001790  00000+0  17886-3 0  9993
2 43678  97.9986 182.6867 0008948 216.9895 143.0729 14.92767487233295
ES'HAIL 2               
1 43700U 18090A   23041.61051376  .00000156  00000+0  00000+0 0  9991
2 43700   0.0134 133.1122 0002364 229.1900  23.6962  1.00268998 15664
FOX-1CLIFF (AO-95)      
1 43770U 18099N   23041.40122754  .00011395  00000+0  96507-3 0  9991
2 43770  97.5921 106.3868 0013143 189.2811 170.8170 14.98087324228619
ITASAT 1                
1 43786U 18099AE  23041.18472074  .00009697  00000+0  82382-3 0  9994
2 43786  97.5925 107.2004 0014566 184.6809 175.4280 14.97995389228620
JY1SAT (JO-97)          
1 43803U 18099AX  23040.96695591  .00010958  00000+0  90950-3 0  9992
2 43803  97.5886 106.8612 0014173 188.6920 171.4060 14.98868507228622
UWE-4                   
1 43880U 18111E   23040.98669003  .00010888  00000+0  87530-3 0  9995
2 43880  97.6533 308.2037 0012669 241.8433 118.1511 15.00118450225282
NEXUS (FO-99)           
1 43937U 19003F   23041.12282361  .00051521  00000+0  13021-2 0  9996
2 43937  97.1055  71.0013 0017335  26.9608 333.2535 15.39475913226413
PSAT2 (NO-104)          
1 44354U 19036R   23040.94100291  .01723094 -73894-5  10141-2 0  9996
2 44354  28.5109 281.6083 0041725 218.6097 141.1534 16.15203211201786
JAISAT-1                
1 44419U 19038F   23041.48908356  .00037017  00000+0  15604-2 0  9991
2 44419  97.6650  19.7252 0018283  35.7656 324.4800 15.23072825199204
DUCHIFAT-3              
1 44854U 19089C   23040.99305059  .00009314  00000+0  67423-3 0  9992
2 44854  36.9638 130.0415 0007595 353.4226 175.5394 15.03521784173660
CAS-6 (TIANQIN 1)       
1 44881U 19093C   23041.32679257  .00001401  00000+0  18232-3 0  9992
2 44881  97.8728 121.9192 0015769 128.5019 231.7668 14.82119601170001
RS-44 & BREEZE-KM R/B   
1 44909U 19096E   23041.02131479  .00000016  00000+0  13055-4 0  9992
2 44909  82.5177  72.4445 0218439 124.1420 238.0610 12.79718233145895
ORBITAL FACTORY 2 (OF-2)
1 45113U 19071C   23041.11017957  .00269447  00000+0  17983-2 0  9994
2 45113  51.6297 313.9389 0000343 244.1190 115.9773 15.73987234170340
HUSKYSAT-1 (HO-107)     
1 45119U 19071J   23041.16381226  .00181474  00000+0  16444-2 0  9992
2 45119  51.6321 318.0276 0001677 323.0717  37.0163 15.66932836170288
BY70-2                  
1 45857U 20042B   23041.56464018  .00027486  00000+0  32571-2 0  9997
2 45857  97.9349 121.5279 0009347  66.0559 294.1759 14.84463481140716
SALSAT                  
1 46495U 20068K   23041.10110332  .00008128  00000+0  55926-3 0  9993
2 46495  97.7577 348.0197 0015741 183.8170 176.2939 15.06067564129931
BY70-3                  
1 46839U 20079N   23041.06655882  .00167109  00000+0  17672-2 0  9996
2 46839  97.1667 117.1679 0004586 200.8170 244.0307 15.63617738127031
RADFXSAT-2 (AO-109)     
1 47311U 21002C   23040.86848028  .00037886  00000+0  12221-2 0  9995
2 47311  60.6828 185.3330 0035678 110.2148 250.2785 15.31309195114739
UVSQ-SAT                
1 47438U 21006AB  23041.09718092  .00024274  00000+0  11355-2 0  9996
2 47438  97.4046 100.3108 0011263 162.2533 197.9098 15.19694922113316
DIY-1 (ARDUIQUBE)       
1 47963U 21022AH  23041.00921529  .00101519  00000+0  37815-2 0  9996
2 47963  97.5136 306.0073 0015515  42.5044 317.7393 15.26931728102995
XW-3 (CAS-9)            
1 50466U 21131B   23040.56036002  .00001029  00000+0  35012-3 0  9995
2 50466  98.5610 122.4907 0005256 153.3121 206.8338 14.38666929 59009
TEVEL-3                 
1 50988U 22002E   23041.07546986  .00019314  00000+0  91985-3 0  9993
2 50988  97.4530 109.3235 0006912 325.0076 123.1109 15.19157824 59424
TEVEL-8                 
1 50989U 22002F   23041.02919162  .00019209  00000+0  91637-3 0  9996
2 50989  97.4542 109.3219 0007628 320.2066 160.5096 15.19096693 59416
TEVEL-5                 
1 50998U 22002Q   23041.07224069  .00027150  00000+0  12661-2 0  9999
2 50998  97.4506 109.5748 0009236 315.3776  89.8530 15.19797014 59449
TEVEL-6                 
1 50999U 22002R   23041.07121581  .00027062  00000+0  12618-2 0  9999
2 50999  97.4506 109.5709 0009336 316.3008  89.9064 15.19802431 59440
TEVEL-1                 
1 51013U 22002AF  23041.07407928  .00019230  00000+0  91665-3 0  9997
2 51013  97.4529 109.2812 0007293 326.4817  78.1864 15.19126064 59422
TEVEL-7                 
1 51062U 22002CG  23040.95894470  .00019198  00000+0  91586-3 0  9994
2 51062  97.4539 109.2327 0007137 320.9715 125.0579 15.19098765 59400
TEVEL-4                 
1 51063U 22002CH  23041.03371911  .00019433  00000+0  92744-3 0  9994
2 51063  97.4540 109.2967 0008044 322.3403 157.6151 15.19077337 59411
TEVEL-2                 
1 51069U 22002CP  23041.06963448  .00019146  00000+0  91201-3 0  9993
2 51069  97.4530 109.2978 0006660 323.8102  82.1321 15.19154587 59427
GREENCUBE               
1 53106U 22080B   23034.19933790 -.00000003  00000+0  00000+0 0  9992
2 53106  70.1777   6.2677 0008922 216.5435 143.4616  6.42557193 13147
RS29S (SXC3-2110 CYCLO*)
1 53373U 22096D   23041.67166671  .00033301  00000+0  11370-2 0  9993
2 53373  97.4259 307.2306 0001600  85.3442   0.9287 15.30242187 28282
RS32S (SXC3-212 MONITO*)
1 53374U 22096E   23041.72659481  .00036010  00000+0  12345-2 0  9999
2 53374  97.4251 307.2866 0001866 112.1232 305.7363 15.30092916 28291
RS34S (SXC3-218 KUZBAS*)
1 53375U 22096F   23041.70338492  .00030554  00000+0  10732-2 0  9999
2 53375  97.4243 307.1865 0001691  92.9663 354.3460 15.29337164 28282
RS23S (SXC3-21 UTMN)    
1 53376U 22096G   23041.69402122  .00033422  00000+0  11663-2 0  9991
2 53376  97.4256 307.1967 0001766 100.1687 344.9300 15.29530655 28289
RS28S (SXC3-214 MIET-A*)
1 53377U 22096H   23041.69951435  .00031657  00000+0  11118-2 0  9991
2 53377  97.4256 307.1952 0001623 108.9417 338.3800 15.29332729 28287
RS26S (KAI-1)           
1 53378U 22096J   23041.06971359  .00018958  00000+0  68000-3 0  9992
2 53378  97.4271 306.5196 0001343 123.2349 351.2712 15.28750418 28184
RS19S (SXC3-219 ISOI)   
1 53381U 22096M   23041.70586122  .00029375  00000+0  10150-2 0  9994
2 53381  97.4255 307.3366 0005413 128.3821 321.1162 15.29870825 28294
RS21S (CUBESX-HSE-2)    
1 53383U 22096P   23041.69340704  .00030278  00000+0  10423-2 0  9995
2 53383  97.4258 307.3423 0005729 130.6115 287.6893 15.29983730 28292
RS30S (SXC3-217 SIREN)  
1 53384U 22096Q   23041.64951331  .00025848  00000+0  90306-3 0  9991
2 53384  97.4262 307.2604 0005498 128.3077 322.3061 15.29534703 28287
RS20S (GEOSCAN-EDELVEIS)
1 53385U 22096R   23041.68113708  .00040815  00000+0  13431-2 0  9998
2 53385  97.4254 307.5006 0005798 123.5717 291.2313 15.31377865 28336
RS33S (SXC3-215 VIZARD) 
1 53386U 22096S   23041.67212538  .00043525  00000+0  13764-2 0  9999
2 53386  97.4254 307.6781 0006542 127.8191 321.4906 15.32638143 28333
CAS-5A (FO-118)         
1 54684U 22167C   23041.65284419  .00018727  00000+0  11475-2 0  9998
2 54684  97.5415 180.5903 0015040  52.1230  68.8654 15.10122268  9553
XW-4 (CAS-10)           
1 54816U 21035C   23041.72404933  .00261904  00000+0  15315-2 0  9995
2 54816  41.4780 203.5496 0015555 309.5646  50.3888 15.76621775  8459
